{"type": "FeatureCollection", "features": [ {"type": "Feature", "properties": {"norad_id": 30467, "name": "FENGYUN 1C DEB", "group": "fengyun-1c-debris", "lat": -9.0058305411795, "lon": -160.08020622487734, "alt_km": 831.6187634420303, "timestamp": "2025-12-19T22:41:52.669174+00:00", "meta": {"OBJECT_NAME": "FENGYUN 1C DEB", "OBJECT_ID": "1999-025AGE", "EPOCH": "2025-12-19T01:44:30.226848", "MEAN_MOTION": 14.17296212, "ECCENTRICITY": 0.00652669, "INCLINATION": 98.6783, "RA_OF_ASC_NODE": 20.4544, "ARG_OF_PERICENTER": 109.5462, "MEAN_ANOMALY": 306.0309, "EPHEMERIS_TYPE": 0, "CLASSIFICATION_TYPE": "U", "NORAD_CAT_ID": 30467, "ELEMENT_SET_NO": 999, "REV_AT_EPOCH": 97267, "BSTAR": 0.00069274916, "MEAN_MOTION_DOT": 1.387e-05, "MEAN_MOTION_DDOT": 0}, "tle": {"line1": "1 30467U 99025AGE 25353.07257207  .00001387  00000+0  69275-3 0  9993", "line2": "2 30467  98.6783  20.4544 0065266 109.5462 306.0309 14.17296212972671"}}, "geometry": {"type": "Point", "coordinates": [-160.08020622487734, -9.0058305411795]}}, {"type": "Feature", "properties": {"norad_id": 30468, "name": "FENGYUN 1C DEB", "group": "fengyun-1c-debris", "lat": -46.46893726993979, "lon": -114.00887557841355, "alt_km": 874.9402683510043, "timestamp": "2025-12-19T22:41:52.669194+00:00", "meta": {"OBJECT_NAME": "FENGYUN 1C DEB", "OBJECT_ID": "1999-025AGF", "EPOCH": "2025-12-19T04:51:36.940032", "MEAN_MOTION": 14.20746422, "ECCENTRICITY": 0.00715442, "INCLINATION": 98.9222, "RA_OF_ASC_NODE": 74.7593, "ARG_OF_PERICENTER": 21.2086, "MEAN_ANOMALY": 7.0043, "EPHEMERIS_TYPE": 0, "CLASSIFICATION_TYPE": "U", "NORAD_CAT_ID": 30468, "ELEMENT_SET_NO": 999, "REV_AT_EPOCH": 96902, "BSTAR": 0.001118428, "MEAN_MOTION_DOT": 2.431e-05, "MEAN_MOTION_DDOT": 0}, "tle": {"line1": "1 30468U 99025AGF 25353.20251088  .00002431  00000+0  11184-2 0  9996", "line2": "2 30468  98.9222  74.7593 0071544  21.2086   7.0043 14.20746422969022"}}, "geometry": {"type": "Point", "coordinates": [-114.00887557841355, -46.46893726993979]}}, {"type": "Feature", "properties": {"norad_id": 30469, "name": "FENGYUN 1C DEB", "group": "fengyun-1c-debris", "lat": -50.72468775381856, "lon": -145.39974730370915, "alt_km": 1020.3958489664992, "timestamp": "2025-12-19T22:41:52.669214+00:00", "meta": {"OBJECT_NAME": "FENGYUN 1C DEB", "OBJECT_ID": "1999-025AGG", "EPOCH": "2025-12-19T01:19:42.480192", "MEAN_MOTION": 13.96527995, "ECCENTRICITY": 0.01585771, "INCLINATION": 98.4784, "RA_OF_ASC_NODE": 203.2699, "ARG_OF_PERICENTER": 151.9605, "MEAN_ANOMALY": 1.9709, "EPHEMERIS_TYPE": 0, "CLASSIFICATION_TYPE": "U", "NORAD_CAT_ID": 30469, "ELEMENT_SET_NO": 999, "REV_AT_EPOCH": 95794, "BSTAR": 0.00084982221, "MEAN_MOTION_DOT": 1.268e-05, "MEAN_MOTION_DDOT": 0}, "tle": {"line1": "1 30469U 99025AGG 25353.05535278  .00001268  00000+0  84982-3 0  9990", "line2": "2 30469  98.4784 203.2699 0158577 151.9605   1.9709 13.96527995957941"}}, "geometry": {"type": "Point", "coordinates": [-145.39974730370915, -50.72468775381856]}}, {"type": "Feature", "properties": {"norad_id": 30471, "name": "FENGYUN 1C DEB", "group": "fengyun-1c-debris", "lat": 54.317973289661644, "lon": -85.53351614460352, "alt_km": 860.5324782069183, "timestamp": "2025-12-19T22:41:52.669234+00:00", "meta": {"OBJECT_NAME": "FENGYUN 1C DEB", "OBJECT_ID": "1999-025AGJ", "EPOCH": "2025-12-19T17:43:47.134272", "MEAN_MOTION": 14.1366868, "ECCENTRICITY": 0.008315, "INCLINATION": 99.0545, "RA_OF_ASC_NODE": 81.4269, "ARG_OF_PERICENTER": 233.9497, "MEAN_ANOMALY": 278.629, "EPHEMERIS_TYPE": 0, "CLASSIFICATION_TYPE": "U", "NORAD_CAT_ID": 30471, "ELEMENT_SET_NO": 999, "REV_AT_EPOCH": 96541, "BSTAR": 0.0011689, "MEAN_MOTION_DOT": 2.235e-05, "MEAN_MOTION_DDOT": 0}, "tle": {"line1": "1 30471U 99025AGJ 25353.73873998  .00002235  00000+0  11689-2 0  9990", "line2": "2 30471  99.0545  81.4269 0083150 233.9497 278.6290 14.13668680965415"}}, "geometry": {"type": "Point", "coordinates": [-85.53351614460352, 54.317973289661644]}}, {"type": "Feature", "properties": {"norad_id": 30472, "name": "FENGYUN 1C DEB", "group": "fengyun-1c-debris", "lat": -14.26331890052666, "lon": -86.92692049511668, "alt_km": 737.025580357159, "timestamp": "2025-12-19T22:41:52.669254+00:00", "meta": {"OBJECT_NAME": "FENGYUN 1C DEB", "OBJECT_ID": "1999-025AGK", "EPOCH": "2025-12-19T05:25:47.155872", "MEAN_MOTION": 14.53905184, "ECCENTRICITY": 0.0037736, "INCLINATION": 98.6522, "RA_OF_ASC_NODE": 94.5483, "ARG_OF_PERICENTER": 59.5385, "MEAN_ANOMALY": 330.7117, "EPHEMERIS_TYPE": 0, "CLASSIFICATION_TYPE": "U", "NORAD_CAT_ID": 30472, "ELEMENT_SET_NO": 999, "REV_AT_EPOCH": 98135, "BSTAR": 0.0015123, "MEAN_MOTION_DOT": 6.377e-05, "MEAN_MOTION_DDOT": 0}, "tle": {"line1": "1 30472U 99025AGK 25353.22624023  .00006377  00000+0  15123-2 0  9996", "line2": "2 30472  98.6522  94.5483 0037736  59.5385 330.7117 14.53905184981352"}}, "geometry": {"type": "Point", "coordinates": [-86.92692049511668, -14.26331890052666]}}, {"type": "Feature", "properties": {"norad_id": 30474, "name": "FENGYUN 1C DEB", "group": "fengyun-1c-debris", "lat": 13.78839457681707, "lon": 70.89569367676401, "alt_km": 752.9405471107029, "timestamp": "2025-12-19T22:41:52.669274+00:00", "meta": {"OBJECT_NAME": "FENGYUN 1C DEB", "OBJECT_ID": "1999-025AGM", "EPOCH": "2025-12-19T04:23:58.545600", "MEAN_MOTION": 14.37838373, "ECCENTRICITY": 0.00229634, "INCLINATION": 98.9289, "RA_OF_ASC_NODE": 72.3151, "ARG_OF_PERICENTER": 342.5953, "MEAN_ANOMALY": 47.0539, "EPHEMERIS_TYPE": 0, "CLASSIFICATION_TYPE": "U", "NORAD_CAT_ID": 30474, "ELEMENT_SET_NO": 999, "REV_AT_EPOCH": 97486, "BSTAR": 0.0016534559, "MEAN_MOTION_DOT": 4.955e-05, "MEAN_MOTION_DDOT": 0}, "tle": {"line1": "1 30474U 99025AGM 25353.18331650  .00004955  00000+0  16535-2 0  9992", "line2": "2 30474  98.9289  72.3151 0022963 342.5953  47.0539 14.37838373974866"}}, "geometry": {"type": "Point", "coordinates": [70.89569367676401, 13.78839457681707]}}, {"type": "Feature", "properties": {"norad_id": 30475, "name": "FENGYUN 1C DEB", "group": "fengyun-1c-debris", "lat": -43.97728370583171, "lon": -153.2154938517706, "alt_km": 824.7813888880382, "timestamp": "2025-12-19T22:41:52.669294+00:00", "meta": {"OBJECT_NAME": "FENGYUN 1C DEB", "OBJECT_ID": "1999-025AGN", "EPOCH": "2025-12-19T01:35:00.196800", "MEAN_MOTION": 14.15698546, "ECCENTRICITY": 0.00427783, "INCLINATION": 98.7875, "RA_OF_ASC_NODE": 34.5011, "ARG_OF_PERICENTER": 272.3781, "MEAN_ANOMALY": 151.2444, "EPHEMERIS_TYPE": 0, "CLASSIFICATION_TYPE": "U", "NORAD_CAT_ID": 30475, "ELEMENT_SET_NO": 999, "REV_AT_EPOCH": 97041, "BSTAR": 0.00065004854, "MEAN_MOTION_DOT": 1.242e-05, "MEAN_MOTION_DDOT": 0}, "tle": {"line1": "1 30475U 99025AGN 25353.06597450  .00001242  00000+0  65005-3 0  9995", "line2": "2 30475  98.7875  34.5011 0042778 272.3781 151.2444 14.15698546970418"}}, "geometry": {"type": "Point", "coordinates": [-153.2154938517706, -43.97728370583171]}}, {"type": "Feature", "properties": {"norad_id": 30476, "name": "FENGYUN 1C DEB", "group": "fengyun-1c-debris", "lat": 60.16139393578613, "lon": -132.35496680371816, "alt_km": 847.0190802938268, "timestamp": "2025-12-19T22:41:52.669312+00:00", "meta": {"OBJECT_NAME": "FENGYUN 1C DEB", "OBJECT_ID": "1999-025AGP", "EPOCH": "2025-12-18T02:31:08.601024", "MEAN_MOTION": 14.20941782, "ECCENTRICITY": 0.00454083, "INCLINATION": 99.1246, "RA_OF_ASC_NODE": 29.4735, "ARG_OF_PERICENTER": 284.0077, "MEAN_ANOMALY": 143.513, "EPHEMERIS_TYPE": 0, "CLASSIFICATION_TYPE": "U", "NORAD_CAT_ID": 30476, "ELEMENT_SET_NO": 999, "REV_AT_EPOCH": 96921, "BSTAR": 0.0011618658, "MEAN_MOTION_DOT": 2.495e-05, "MEAN_MOTION_DDOT": 0}, "tle": {"line1": "1 30476U 99025AGP 25352.10496066  .00002495  00000+0  11619-2 0  9993", "line2": "2 30476  99.1246  29.4735 0045408 284.0077 143.5130 14.20941782969214"}}, "geometry": {"type": "Point", "coordinates": [-132.35496680371816, 60.16139393578613]}}, {"type": "Feature", "properties": {"norad_id": 30477, "name": "FENGYUN 1C DEB", "group": "fengyun-1c-debris", "lat": 51.926809261038436, "lon": -91.44424783562971, "alt_km": 1379.6376927280971, "timestamp": "2025-12-19T22:41:52.669331+00:00", "meta": {"OBJECT_NAME": "FENGYUN 1C DEB", "OBJECT_ID": "1999-025AGQ", "EPOCH": "2025-12-19T04:02:14.538048", "MEAN_MOTION": 13.23845083, "ECCENTRICITY": 0.04343052, "INCLINATION": 99.4253, "RA_OF_ASC_NODE": 75.6086, "ARG_OF_PERICENTER": 261.5853, "MEAN_ANOMALY": 125.4537, "EPHEMERIS_TYPE": 0, "CLASSIFICATION_TYPE": "U", "NORAD_CAT_ID": 30477, "ELEMENT_SET_NO": 999, "REV_AT_EPOCH": 90804, "BSTAR": 0.0026142922, "MEAN_MOTION_DOT": 1.799e-05, "MEAN_MOTION_DDOT": 0}, "tle": {"line1": "1 30477U 99025AGQ 25353.16822382  .00001799  00000+0  26143-2 0  9999", "line2": "2 30477  99.4253  75.6086 0434305 261.5853 125.4537 13.23845083908041"}}, "geometry": {"type": "Point", "coordinates": [-91.44424783562971, 51.926809261038436]}}, {"type": "Feature", "properties": {"norad_id": 30480, "name": "FENGYUN 1C DEB", "group": "fengyun-1c-debris", "lat": -6.287909825445781, "lon": -172.5072052395149, "alt_km": 725.9028543687873, "timestamp": "2025-12-19T22:41:52.669351+00:00", "meta": {"OBJECT_NAME": "FENGYUN 1C DEB", "OBJECT_ID": "1999-025AGS", "EPOCH": "2025-12-19T06:49:56.152416", "MEAN_MOTION": 14.3360791, "ECCENTRICITY": 0.0166616, "INCLINATION": 98.2233, "RA_OF_ASC_NODE": 7.7772, "ARG_OF_PERICENTER": 126.1995, "MEAN_ANOMALY": 248.554, "EPHEMERIS_TYPE": 0, "CLASSIFICATION_TYPE": "U", "NORAD_CAT_ID": 30480, "ELEMENT_SET_NO": 999, "REV_AT_EPOCH": 98762, "BSTAR": 0.00014797, "MEAN_MOTION_DOT": 4.35e-06, "MEAN_MOTION_DDOT": 0}, "tle": {"line1": "1 30480U 99025AGS 25353.28467769  .00000435  00000+0  14797-3 0  9999", "line2": "2 30480  98.2233   7.7772 0166616 126.1995 248.5540 14.33607910987627"}}, "geometry": {"type": "Point", "coordinates": [-172.5072052395149, -6.287909825445781]}}]}